SL-3 R/B                
1 19046U 88032B   17273.50527252 -.00000044  00000-0  12708-5 0  9991
2 19046  97.5192 317.3208 0037044 339.4213  20.5518 15.02298608588454
SL-16 R/B               
1 19120U 88039B   17273.11441828  .00000023  00000-0  33631-4 0  9995
2 19120  71.0129 103.2177 0021143  21.7496 338.4522 14.19172762521270
COSMOS 1953             
1 19210U 88050A   17272.52406591  .00000993  00000-0  67291-4 0  9995
2 19210  82.5142 292.2214 0011525 264.8422  95.1490 15.05361254593536
SL-8 R/B                
1 19257U 88053B   17273.52134448  .00000044  00000-0  23512-4 0  9994
2 19257  74.0511  22.8925 0021426 249.0420 188.6233 14.37374177533903
COSMOS 1975             
1 19573U 88093A   17272.90986892  .00000703  00000-0  48418-4 0  9992
2 19573  82.5186 244.1480 0012853 306.9193  53.0855 15.04264686554417
SL-14 R/B               
1 19574U 88093B   17273.51006479  .00000164  00000-0  17062-4 0  9997
2 19574  82.5329  46.5912 0022889 127.0796 278.2598 14.83234893565063
SL-16 R/B               
1 19650U 88102B   17272.93085445  .00000228  00000-0  14015-3 0  9993
2 19650  70.9993 154.8515 0013586  15.1429 345.0098 14.15761696490541
INTERCOSMOS 24          
1 20261U 89080A   17272.69718427  .00000370  00000-0  10855-3 0  9991
2 20261  82.5915 302.2312 1203379 215.6957 135.7613 12.55907504279491
SL-14 R/B               
1 20262U 89080C   17273.21188202  .00000053  00000-0  10143-4 0  9992
2 20262  82.5975 348.8395 1237596  17.1970 346.7403 12.48872692274827
DELTA 1 R/B             
1 20323U 89089B   17272.93433673  .00000103  00000-0  35719-4 0  9994
2 20323  97.1151 202.2956 0073261 110.6027 250.3048 14.48216288469889
DELTA 2 R/B(1)          
1 20453U 90008B   17273.19315906  .00003123  00000-0  17828-3 0  9993
2 20453  35.6273 333.2431 0288679 321.6249  36.4245 14.83558115463804
COSMOS 2058             
1 20465U 90010A   17272.78859666  .00000545  00000-0  44364-4 0  9990
2 20465  82.4899 147.2963 0014385 306.3493  53.6401 14.97580817500992
SL-14 R/B               
1 20466U 90010B   17273.14475494  .00000137  00000-0  14540-4 0  9995
2 20466  82.5003 274.3958 0020431 358.3444   1.7699 14.81295457493034
SL-14 R/B               
1 20511U 90018B   17273.46343681  .00000110  00000-0  11410-4 0  9995
2 20511  82.5245 216.0633 0018762 124.9131  23.0691 14.79953722487631
HST                     
1 20580U 90037B   17272.80064343  .00000954  00000-0  47925-4 0  9990
2 20580  28.4704  36.2124 0002520 215.3755 274.8457 15.08866091306108
SL-16 R/B               
1 20625U 90046B   17272.50746738  .00000182  00000-0  11921-3 0  9991
2 20625  70.9984 290.1922 0016219 303.9892  55.9689 14.14623838412584
COSMOS 2084             
1 20663U 90055A   17273.07719932  .00000537  00000-0  62057-4 0  9993
2 20663  62.7914 238.0210 0138980 100.3177 261.3619 14.91667081475458
SL-6 R/B(2)             
1 20666U 90055D   17272.91352333  .00000393  00000-0  51325-4 0  9992
2 20666  62.7841 157.0955 0124364 119.6555 241.6991 14.91999390477334
SL-8 R/B                
1 20775U 90078B   17273.13163586  .00004581  00000-0  22720-3 0  9992
2 20775  82.9295 322.1541 0586818  19.0244 343.1885 14.31183897363775
SL-8 R/B                
1 21088U 91006B   17273.57117837  .00000125  00000-0  11133-3 0  9994
2 21088  82.9402 301.8964 0023112  28.7443  81.4808 13.77068377340100
OKEAN-3                 
1 21397U 91039A   17272.84508634  .00000577  00000-0  53614-4 0  9993
2 21397  82.5234  38.9902 0016592 245.1715 114.7780 14.92545701425396
COSMOS 2151             
1 21422U 91042A   17273.23538696  .00000341  00000-0  31249-4 0  9990
2 21422  82.5007 146.4950 0013073 308.1329  51.8712 14.91867891424169
SL-14 R/B               
1 21423U 91042B   17272.87668231  .00000160  00000-0  18268-4 0  9994
2 21423  82.4947 223.5754 0016047 267.5577  92.3799 14.79706641397028
ERS-1                   
1 21574U 91050A   17272.87480877  .00000122  00000-0  54907-4 0  9996
2 21574  98.4687 218.4154 0033237   4.5569 355.5914 14.37610255372643
ARIANE 40 R/B           
1 21610U 91050F   17273.16754178  .00000049  00000-0  29316-4 0  9992
2 21610  98.5939 330.3087 0003076  11.4533   0.3850 14.40809921375236
INTERCOSMOS 25          
1 21819U 91086A   17273.51832137  .00001355  00000-0  26841-3 0  9993
2 21819  82.5742 359.7138 1521862 222.7284 124.5159 12.04630455124968
SL-14 R/B               
1 21820U 91086B   17272.89983823  .00000206  00000-0  34146-4 0  9996
2 21820  82.5608  56.7101 1577506  56.2255 317.9192 11.93335281119278
SL-8 R/B                
1 21876U 92008B   17273.50846765  .00000022  00000-0  71046-5 0  9991
2 21876  82.9287  38.9255 0036131 100.1049 310.4452 13.75607852285865
SL-8 R/B                
1 21938U 92020B   17273.56256329 -.00000059  00000-0 -76526-4 0  9990
2 21938  82.9261 282.2261 0027844 257.5133 215.5862 13.75255480277776
SL-16 R/B               
1 22220U 92076B   17272.91641341  .00000234  00000-0  14147-3 0  9999
2 22220  71.0006 198.7978 0010865 118.0678 304.1715 14.16420638285274
SL-16 R/B               
1 22285U 92093B   17273.21248515 -.00000268  00000-0 -11373-3 0  9996
2 22285  71.0235 351.9657 0005911 307.4382  52.6202 14.15011794277396
COSMOS 2228             
1 22286U 92094A   17273.51204764  .00000242  00000-0  23607-4 0  9993
2 22286  82.5174 274.7900 0022537 129.2159 231.1064 14.87847790338158
SL-16 R/B               
1 22566U 93016B   17272.90604399 -.00000121  00000-0 -37727-4 0  9995
2 22566  71.0085 207.1108 0011773 323.6617  36.3705 14.14954021266076
COSMOS 2242             
1 22626U 93024A   17273.53164788  .00000370  00000-0  37678-4 0  9993
2 22626  82.5202 302.5056 0020349 128.5075 231.7972 14.87708503321815
SL-16 R/B               
1 22803U 93059B   17272.78991016  .00000221  00000-0  13432-3 0  9992
2 22803  70.9923  29.0136 0018965 231.1567 128.7865 14.16780393243099
ARIANE 40 R/B           
1 22830U 93061H   17272.91256339 -.00000026  00000-0  75717-5 0  9992
2 22830  98.8813 290.6950 0010560 347.9911  12.1018 14.31411705252976
COSMOS 2278             
1 23087U 94023A   17272.92059212 -.00000277  00000-0 -12159-3 0  9996
2 23087  71.0527 140.0850 0007066  40.9838 319.1815 14.13753840209053
SL-16 R/B               
1 23088U 94023B   17272.99402745 -.00000236  00000-0 -98105-4 0  9998
2 23088  71.0003  62.0796 0005711 289.3136  70.7369 14.14661762210362
SL-16 R/B               
1 23343U 94074B   17272.77096604  .00000016  00000-0  99045-5 0  9996
2 23343  98.1434 310.8407 0008273  96.9860  30.9196 14.76710448232059
SL-16 R/B               
1 23405U 94077B   17272.81687628 -.00000162  00000-0 -58983-4 0  9994
2 23405  70.9846 355.4156 0002982 213.7515 146.3418 14.15202593180068
ERS-2                   
1 23560U 95021A   17272.91109627  .00003857  00000-0  17773-3 0  9998
2 23560  98.5602 279.3824 0002712 330.1423  29.9654 15.21028289191274
ARIANE 40+ R/B          
1 23561U 95021B   17273.56733015  .00000086  00000-0  44002-4 0  9992
2 23561  98.7969 277.2088 0006146 314.5210 154.6963 14.37833633176395
SL-16 R/B               
1 23705U 95058B   17272.92684274 -.00000292  00000-0 -12579-3 0  9997
2 23705  71.0225 169.2862 0011033 147.6768 212.5033 14.15101154131708
SL-16 R/B               
1 24298U 96051B   17272.89086892 -.00000130  00000-0 -43912-4 0  9994
2 24298  70.8492 201.4565 0014019  18.1824 341.9795 14.12489878 86340
ORBVIEW 2 (SEASTAR)     
1 24883U 97037A   17272.89361441  .00000094  00000-0  49881-4 0  9993
2 24883  98.5484  20.1938 0003081 138.3309 221.8110 14.33411466 66658
SL-16 R/B               
1 25400U 98043G   17273.50691059  .00000012  00000-0  22963-4 0  9999
2 25400  98.4983 218.4119 0009746 354.7771   5.3306 14.25418940    72
SL-16 R/B               
1 25407U 98045B   17272.93148586  .00000247  00000-0  14981-3 0  9996
2 25407  71.0120 181.3152 0006366  33.8708 326.2821 14.15766290990735
ISS (ZARYA)             
1 25544U 98067A   17273.38531626  .00006084  00000-0  99433-4 0  9994
2 25544  51.6422 233.8957 0004037 326.9488 169.2236 15.54025698 78114
SL-8 R/B                
1 25723U 99022C   17272.65990514  .00012833  00000-0  18897-3 0  9992
2 25723  48.4166 329.8366 0009098 184.2863 175.8006 15.55646620 22758
CZ-4B R/B               
1 25732U 99025C   17272.91948378  .00000012  00000-0  28134-4 0  9997
2 25732  98.9957 275.9560 0037865 151.9746 267.2345 14.17637233951375
OKEAN-O                 
1 25860U 99039A   17272.91304022  .00000144  00000-0  28328-4 0  9997
2 25860  98.1963 259.2752 0001588 108.1082 252.0300 14.76500189979180
SL-16 R/B               
1 25861U 99039B   17273.49183041  .00000106  00000-0  21970-4 0  9992
2 25861  98.1179 245.5839 0017024 101.6696   9.5459 14.78433378981332
TERRA                   
1 25994U 99068A   17273.33814722  .00000138  00000-0  40626-4 0  9995
2 25994  98.1986 346.8409 0000977  69.9923 290.1385 14.57119006945984
ENVISAT                 
1 27386U 02009A   17273.53114421  .00000022  00000-0  20994-4 0  9990
2 27386  98.2202 314.3537 0001184  98.8663 261.2662 14.37904428816216
IDEFIX & ARIANE 42P R/B 
1 27422U 02021B   17272.88970504 -.00000005  00000-0  13866-4 0  9996
2 27422  98.2360 267.4082 0011096 288.5871  71.4106 14.29256648803526
AQUA                    
1 27424U 02022A   17273.56475694  .00000215  00000-0  57884-4 0  9995
2 27424  98.2113 213.3159 0002314 114.4281 254.1332 14.57107723819623
CZ-4B R/B               
1 27432U 02024C   17272.89127156  .00000010  00000-0  28737-4 0  9996
2 27432  99.0003 247.1190 0051500  96.0324 316.5108 14.14050769793516
MIDORI II (ADEOS-II)    
1 27597U 02056A   17272.92548869  .00000105  00000-0  59884-4 0  9997
2 27597  98.3819 238.1016 0001900  56.0645 304.0717 14.27306711770364
H-2A R/B                
1 27601U 02056E   17272.94728970  .00000044  00000-0  31456-4 0  9995
2 27601  98.3664 337.0702 0071774 345.7751  73.6160 14.31799352772805
